CCSDS_OMM_VERS = 2.0
CREATION_DATE  = 
ORIGINATOR     = 

OBJECT_NAME    = STARLINK-36128
OBJECT_ID      = 2025-281AB
CENTER_NAME    = EARTH
REF_FRAME      = TEME
TIME_SYSTEM    = UTC
MEAN_ELEMENT_THEORY = SGP/SGP4

EPOCH          = 2025-12-17T06:00:00.999648
MEAN_MOTION    = 15.76708895
ECCENTRICITY   = .00016283
INCLINATION    = 43.0004
RA_OF_ASC_NODE = 94.4583
ARG_OF_PERICENTER = 269.5363
MEAN_ANOMALY   = 155.7526

EPHEMERIS_TYPE = 0
CLASSIFICATION_TYPE = U
NORAD_CAT_ID   = 66873
ELEMENT_SET_NO = 999
REV_AT_EPOCH   = 215
BSTAR          = -.11011169E-1
MEAN_MOTION_DOT = -.1620154E-1
MEAN_MOTION_DDOT = 0

CCSDS_OMM_VERS = 2.0
CREATION_DATE  = 
ORIGINATOR     = 

OBJECT_NAME    = STARLINK-36129
OBJECT_ID      = 2025-281AC
CENTER_NAME    = EARTH
REF_FRAME      = TEME
TIME_SYSTEM    = UTC
MEAN_ELEMENT_THEORY = SGP/SGP4

EPOCH          = 2025-12-17T06:00:00.999648
MEAN_MOTION    = 15.76923405
ECCENTRICITY   = .00018937
INCLINATION    = 43.0005
RA_OF_ASC_NODE = 94.4694
ARG_OF_PERICENTER = 268.7887
MEAN_ANOMALY   = 152.2450

EPHEMERIS_TYPE = 0
CLASSIFICATION_TYPE = U
NORAD_CAT_ID   = 66874
ELEMENT_SET_NO = 999
REV_AT_EPOCH   = 215
BSTAR          = -.10144596E-1
MEAN_MOTION_DOT = -.1491695E-1
MEAN_MOTION_DDOT = 0

CCSDS_OMM_VERS = 2.0
CREATION_DATE  = 
ORIGINATOR     = 

OBJECT_NAME    = STARLINK-36053
OBJECT_ID      = 2025-281AD
CENTER_NAME    = EARTH
REF_FRAME      = TEME
TIME_SYSTEM    = UTC
MEAN_ELEMENT_THEORY = SGP/SGP4

EPOCH          = 2025-12-17T06:00:00.999648
MEAN_MOTION    = 15.76664456
ECCENTRICITY   = .00012141
INCLINATION    = 43.0007
RA_OF_ASC_NODE = 94.4526
ARG_OF_PERICENTER = 279.8148
MEAN_ANOMALY   = 147.5975

EPHEMERIS_TYPE = 0
CLASSIFICATION_TYPE = U
NORAD_CAT_ID   = 66875
ELEMENT_SET_NO = 999
REV_AT_EPOCH   = 215
BSTAR          = -.12130852E-1
MEAN_MOTION_DOT = -.1761578E-1
MEAN_MOTION_DDOT = 0

CCSDS_OMM_VERS = 2.0
CREATION_DATE  = 
ORIGINATOR     = 

OBJECT_NAME    = STARLINK-35702
OBJECT_ID      = 2025-281AE
CENTER_NAME    = EARTH
REF_FRAME      = TEME
TIME_SYSTEM    = UTC
MEAN_ELEMENT_THEORY = SGP/SGP4

EPOCH          = 2025-12-17T06:00:00.999648
MEAN_MOTION    = 15.76760828
ECCENTRICITY   = .00018752
INCLINATION    = 43.0007
RA_OF_ASC_NODE = 94.4637
ARG_OF_PERICENTER = 267.8253
MEAN_ANOMALY   = 155.4645

EPHEMERIS_TYPE = 0
CLASSIFICATION_TYPE = U
NORAD_CAT_ID   = 66876
ELEMENT_SET_NO = 999
REV_AT_EPOCH   = 215
BSTAR          = -.11027549E-1
MEAN_MOTION_DOT = -.162584E-1
MEAN_MOTION_DDOT = 0

CCSDS_OMM_VERS = 2.0
CREATION_DATE  = 
ORIGINATOR     = 

OBJECT_NAME    = ZQ-3 R/B
OBJECT_ID      = 2025-282A
CENTER_NAME    = EARTH
REF_FRAME      = TEME
TIME_SYSTEM    = UTC
MEAN_ELEMENT_THEORY = SGP/SGP4

EPOCH          = 2025-12-17T07:42:07.579584
MEAN_MOTION    = 14.68930288
ECCENTRICITY   = .07398954
INCLINATION    = 56.9505
RA_OF_ASC_NODE = 40.0113
ARG_OF_PERICENTER = 227.9505
MEAN_ANOMALY   = 125.6259

EPHEMERIS_TYPE = 0
CLASSIFICATION_TYPE = U
NORAD_CAT_ID   = 66877
ELEMENT_SET_NO = 999
REV_AT_EPOCH   = 206
BSTAR          = .19424049E-3
MEAN_MOTION_DOT = .1030255E-1
MEAN_MOTION_DDOT = .7645753E-5

CCSDS_OMM_VERS = 2.0
CREATION_DATE  = 
ORIGINATOR     = 

OBJECT_NAME    = STARLINK-35866
OBJECT_ID      = 2025-283A
CENTER_NAME    = EARTH
REF_FRAME      = TEME
TIME_SYSTEM    = UTC
MEAN_ELEMENT_THEORY = SGP/SGP4

EPOCH          = 2025-12-17T06:00:00.999648
MEAN_MOTION    = 15.82974039
ECCENTRICITY   = .00010395
INCLINATION    = 53.1560
RA_OF_ASC_NODE = 51.1343
ARG_OF_PERICENTER = 73.8135
MEAN_ANOMALY   = 9.6166

EPHEMERIS_TYPE = 0
CLASSIFICATION_TYPE = U
NORAD_CAT_ID   = 66878
ELEMENT_SET_NO = 999
REV_AT_EPOCH   = 315
BSTAR          = -.64388154E-2
MEAN_MOTION_DOT = -.1242268E-1
MEAN_MOTION_DDOT = 0

CCSDS_OMM_VERS = 2.0
CREATION_DATE  = 
ORIGINATOR     = 

OBJECT_NAME    = STARLINK-35749
OBJECT_ID      = 2025-283B
CENTER_NAME    = EARTH
REF_FRAME      = TEME
TIME_SYSTEM    = UTC
MEAN_ELEMENT_THEORY = SGP/SGP4

EPOCH          = 2025-12-17T06:00:00.999648
MEAN_MOTION    = 15.82943741
ECCENTRICITY   = .00009434
INCLINATION    = 53.1557
RA_OF_ASC_NODE = 51.1234
ARG_OF_PERICENTER = 78.4037
MEAN_ANOMALY   = 10.1464

EPHEMERIS_TYPE = 0
CLASSIFICATION_TYPE = U
NORAD_CAT_ID   = 66879
ELEMENT_SET_NO = 999
REV_AT_EPOCH   = 315
BSTAR          = -.65228734E-2
MEAN_MOTION_DOT = -.1254946E-1
MEAN_MOTION_DDOT = 0

CCSDS_OMM_VERS = 2.0
CREATION_DATE  = 
ORIGINATOR     = 

OBJECT_NAME    = STARLINK-35844
OBJECT_ID      = 2025-283C
CENTER_NAME    = EARTH
REF_FRAME      = TEME
TIME_SYSTEM    = UTC
MEAN_ELEMENT_THEORY = SGP/SGP4

EPOCH          = 2025-12-17T06:00:00.999648
MEAN_MOTION    = 15.82966467
ECCENTRICITY   = .00009831
INCLINATION    = 53.1561
RA_OF_ASC_NODE = 51.1295
ARG_OF_PERICENTER = 80.6760
MEAN_ANOMALY   = 5.2075

EPHEMERIS_TYPE = 0
CLASSIFICATION_TYPE = U
NORAD_CAT_ID   = 66880
ELEMENT_SET_NO = 999
REV_AT_EPOCH   = 315
BSTAR          = -.64825807E-2
MEAN_MOTION_DOT = -.1249306E-1
MEAN_MOTION_DDOT = 0

CCSDS_OMM_VERS = 2.0
CREATION_DATE  = 
ORIGINATOR     = 

OBJECT_NAME    = STARLINK-35860
OBJECT_ID      = 2025-283D
CENTER_NAME    = EARTH
REF_FRAME      = TEME
TIME_SYSTEM    = UTC
MEAN_ELEMENT_THEORY = SGP/SGP4

EPOCH          = 2025-12-17T06:00:00.999648
MEAN_MOTION    = 15.82946081
ECCENTRICITY   = .00011009
INCLINATION    = 53.1557
RA_OF_ASC_NODE = 51.1185
ARG_OF_PERICENTER = 70.9657
MEAN_ANOMALY   = 19.7703

EPHEMERIS_TYPE = 0
CLASSIFICATION_TYPE = U
NORAD_CAT_ID   = 66881
ELEMENT_SET_NO = 999
REV_AT_EPOCH   = 315
BSTAR          = -.65662636E-2
MEAN_MOTION_DOT = -.1262534E-1
MEAN_MOTION_DDOT = 0

CCSDS_OMM_VERS = 2.0
CREATION_DATE  = 
ORIGINATOR     = 

OBJECT_NAME    = STARLINK-35912
OBJECT_ID      = 2025-283E
CENTER_NAME    = EARTH
REF_FRAME      = TEME
TIME_SYSTEM    = UTC
MEAN_ELEMENT_THEORY = SGP/SGP4

EPOCH          = 2025-12-17T06:00:00.999648
MEAN_MOTION    = 15.82945791
ECCENTRICITY   = .00011592
INCLINATION    = 53.1560
RA_OF_ASC_NODE = 51.1142
ARG_OF_PERICENTER = 71.5287
MEAN_ANOMALY   = 21.6256

EPHEMERIS_TYPE = 0
CLASSIFICATION_TYPE = U
NORAD_CAT_ID   = 66882
ELEMENT_SET_NO = 999
REV_AT_EPOCH   = 315
BSTAR          = -.66913472E-2
MEAN_MOTION_DOT = -.1283742E-1
MEAN_MOTION_DDOT = 0

CCSDS_OMM_VERS = 2.0
CREATION_DATE  = 
ORIGINATOR     = 

OBJECT_NAME    = STARLINK-35947
OBJECT_ID      = 2025-283F
CENTER_NAME    = EARTH
REF_FRAME      = TEME
TIME_SYSTEM    = UTC
MEAN_ELEMENT_THEORY = SGP/SGP4

EPOCH          = 2025-12-17T06:00:00.999648
MEAN_MOTION    = 15.82942249
ECCENTRICITY   = .00010415
INCLINATION    = 53.1559
RA_OF_ASC_NODE = 51.1090
ARG_OF_PERICENTER = 79.2993
MEAN_ANOMALY   = 16.4063

EPHEMERIS_TYPE = 0
CLASSIFICATION_TYPE = U
NORAD_CAT_ID   = 66883
ELEMENT_SET_NO = 999
REV_AT_EPOCH   = 320
BSTAR          = -.68911723E-2
MEAN_MOTION_DOT = -.1317111E-1
MEAN_MOTION_DDOT = 0

CCSDS_OMM_VERS = 2.0
CREATION_DATE  = 
ORIGINATOR     = 

OBJECT_NAME    = STARLINK-36057
OBJECT_ID      = 2025-283G
CENTER_NAME    = EARTH
REF_FRAME      = TEME
TIME_SYSTEM    = UTC
MEAN_ELEMENT_THEORY = SGP/SGP4

EPOCH          = 2025-12-17T06:00:00.999648
MEAN_MOTION    = 15.82919930
ECCENTRICITY   = .00010471
INCLINATION    = 53.1557
RA_OF_ASC_NODE = 51.0980
ARG_OF_PERICENTER = 71.2062
MEAN_ANOMALY   = 29.5348

EPHEMERIS_TYPE = 0
CLASSIFICATION_TYPE = U
NORAD_CAT_ID   = 66884
ELEMENT_SET_NO = 999
REV_AT_EPOCH   = 315
BSTAR          = -.72408431E-2
MEAN_MOTION_DOT = -.137405E-1
MEAN_MOTION_DDOT = 0

